{"type": "FeatureCollection", "features": [ {"type": "Feature", "properties": {"norad_id": 33153, "name": "INTELSAT 25 (IS-25)", "group": "intelsat", "lat": 0.2904769182709452, "lon": -105.35733978016003, "alt_km": 35765.13776103108, "timestamp": "2025-12-13T13:34:34.742168+00:00", "meta": {"OBJECT_NAME": "INTELSAT 25 (IS-25)", "OBJECT_ID": "2008-034A", "EPOCH": "2025-12-12T23:36:13.851360", "MEAN_MOTION": 1.00271805, "ECCENTRICITY": 0.00049944, "INCLINATION": 2.2286, "RA_OF_ASC_NODE": 82.6464, "ARG_OF_PERICENTER": 179.7951, "MEAN_ANOMALY": 142.0467, "EPHEMERIS_TYPE": 0, "CLASSIFICATION_TYPE": "U", "NORAD_CAT_ID": 33153, "ELEMENT_SET_NO": 999, "REV_AT_EPOCH": 6382, "BSTAR": 0, "MEAN_MOTION_DOT": -2.11e-06, "MEAN_MOTION_DDOT": 0}, "tle": {"line1": "1 33153U 08034A   25346.98349365 -.00000211  00000+0  00000+0 0  9990", "line2": "2 33153   2.2286  82.6464 0004994 179.7951 142.0467  1.00271805 63829"}}, "geometry": {"type": "Point", "coordinates": [-105.35733978016003, 0.2904769182709452]}}, {"type": "Feature", "properties": {"norad_id": 33376, "name": "GALAXY 19 (G-19)", "group": "intelsat", "lat": -0.012704894529549078, "lon": -170.90077232932836, "alt_km": 35783.948551275105, "timestamp": "2025-12-13T13:34:34.742178+00:00", "meta": {"OBJECT_NAME": "GALAXY 19 (G-19)", "OBJECT_ID": "2008-045A", "EPOCH": "2025-12-12T23:17:30.645312", "MEAN_MOTION": 1.00269749, "ECCENTRICITY": 0.00026009, "INCLINATION": 0.0185, "RA_OF_ASC_NODE": 357.3328, "ARG_OF_PERICENTER": 267.4977, "MEAN_ANOMALY": 69.4562, "EPHEMERIS_TYPE": 0, "CLASSIFICATION_TYPE": "U", "NORAD_CAT_ID": 33376, "ELEMENT_SET_NO": 999, "REV_AT_EPOCH": 6303, "BSTAR": 0, "MEAN_MOTION_DOT": 0, "MEAN_MOTION_DDOT": 0}, "tle": {"line1": "1 33376U 08045A   25346.97049358  .00000000  00000+0  00000+0 0  9992", "line2": "2 33376   0.0185 357.3328 0002600 267.4977  69.4562  1.00269749 63031"}}, "geometry": {"type": "Point", "coordinates": [-170.90077232932836, -0.012704894529549078]}}, {"type": "Feature", "properties": {"norad_id": 35493, "name": "FM-5", "group": "intelsat", "lat": -0.02941808759612284, "lon": -160.00717941837473, "alt_km": 35783.60335006287, "timestamp": "2025-12-13T13:34:34.742189+00:00", "meta": {"OBJECT_NAME": "FM-5", "OBJECT_ID": "2009-034A", "EPOCH": "2025-12-12T21:37:51.926016", "MEAN_MOTION": 1.0027111, "ECCENTRICITY": 7.77e-05, "INCLINATION": 0.0177, "RA_OF_ASC_NODE": 289.9494, "ARG_OF_PERICENTER": 236.3866, "MEAN_ANOMALY": 153.8282, "EPHEMERIS_TYPE": 0, "CLASSIFICATION_TYPE": "U", "NORAD_CAT_ID": 35493, "ELEMENT_SET_NO": 999, "REV_AT_EPOCH": 4477, "BSTAR": 0, "MEAN_MOTION_DOT": -1.88e-06, "MEAN_MOTION_DDOT": 0}, "tle": {"line1": "1 35493U 09034A   25346.90129544 -.00000188  00000+0  00000+0 0  9990", "line2": "2 35493   0.0177 289.9494 0000777 236.3866 153.8282  1.00271110 44775"}}, "geometry": {"type": "Point", "coordinates": [-160.00717941837473, -0.02941808759612284]}}, {"type": "Feature", "properties": {"norad_id": 36097, "name": "INTELSAT 14 (IS-14)", "group": "intelsat", "lat": -0.021374063144407342, "lon": -118.87276572702868, "alt_km": 35776.52688208174, "timestamp": "2025-12-13T13:34:34.742200+00:00", "meta": {"OBJECT_NAME": "INTELSAT 14 (IS-14)", "OBJECT_ID": "2009-064A", "EPOCH": "2025-12-12T23:32:21.722208", "MEAN_MOTION": 1.00272237, "ECCENTRICITY": 0.00024896, "INCLINATION": 0.0163, "RA_OF_ASC_NODE": 33.8162, "ARG_OF_PERICENTER": 233.0714, "MEAN_ANOMALY": 123.1283, "EPHEMERIS_TYPE": 0, "CLASSIFICATION_TYPE": "U", "NORAD_CAT_ID": 36097, "ELEMENT_SET_NO": 999, "REV_AT_EPOCH": 5873, "BSTAR": 0, "MEAN_MOTION_DOT": -2.61e-06, "MEAN_MOTION_DDOT": 0}, "tle": {"line1": "1 36097U 09064A   25346.98080697 -.00000261  00000+0  00000+0 0  9999", "line2": "2 36097   0.0163  33.8162 0002489 233.0714 123.1283  1.00272237 58730"}}, "geometry": {"type": "Point", "coordinates": [-118.87276572702868, -0.021374063144407342]}}, {"type": "Feature", "properties": {"norad_id": 36106, "name": "INTELSAT 15 (IS-15)", "group": "intelsat", "lat": 0.02939691474201182, "lon": 11.312942195040247, "alt_km": 35787.93308572068, "timestamp": "2025-12-13T13:34:34.742211+00:00", "meta": {"OBJECT_NAME": "INTELSAT 15 (IS-15)", "OBJECT_ID": "2009-067A", "EPOCH": "2025-12-12T22:26:47.239008", "MEAN_MOTION": 1.00272291, "ECCENTRICITY": 0.00023097, "INCLINATION": 0.0189, "RA_OF_ASC_NODE": 295.6726, "ARG_OF_PERICENTER": 334.1519, "MEAN_ANOMALY": 233.8999, "EPHEMERIS_TYPE": 0, "CLASSIFICATION_TYPE": "U", "NORAD_CAT_ID": 36106, "ELEMENT_SET_NO": 999, "REV_AT_EPOCH": 3936, "BSTAR": 0, "MEAN_MOTION_DOT": -1.73e-06, "MEAN_MOTION_DDOT": 0}, "tle": {"line1": "1 36106U 09067A   25346.93526897 -.00000173  00000+0  00000+0 0  9997", "line2": "2 36106   0.0189 295.6726 0002309 334.1519 233.8999  1.00272291 39361"}}, "geometry": {"type": "Point", "coordinates": [11.312942195040247, 0.02939691474201182]}}, {"type": "Feature", "properties": {"norad_id": 36131, "name": "DIRECTV 12", "group": "intelsat", "lat": 0.024159573265567523, "lon": -176.5821894604941, "alt_km": 35788.24775864557, "timestamp": "2025-12-13T13:34:34.742222+00:00", "meta": {"OBJECT_NAME": "DIRECTV 12", "OBJECT_ID": "2009-075A", "EPOCH": "2025-12-12T21:33:07.379712", "MEAN_MOTION": 1.00272368, "ECCENTRICITY": 5.628e-05, "INCLINATION": 0.0421, "RA_OF_ASC_NODE": 134.0274, "ARG_OF_PERICENTER": 219.2719, "MEAN_ANOMALY": 309.1038, "EPHEMERIS_TYPE": 0, "CLASSIFICATION_TYPE": "U", "NORAD_CAT_ID": 36131, "ELEMENT_SET_NO": 999, "REV_AT_EPOCH": 4468, "BSTAR": 0, "MEAN_MOTION_DOT": -9.1e-07, "MEAN_MOTION_DDOT": 0}, "tle": {"line1": "1 36131U 09075A   25346.89800208 -.00000091  00000+0  00000+0 0  9999", "line2": "2 36131   0.0421 134.0274 0000562 219.2719 309.1038  1.00272368 44683"}}, "geometry": {"type": "Point", "coordinates": [-176.5821894604941, 0.024159573265567523]}}, {"type": "Feature", "properties": {"norad_id": 36397, "name": "INTELSAT 16 (IS-16)", "group": "intelsat", "lat": -0.022555888216000936, "lon": -150.0803287041932, "alt_km": 35780.913598145795, "timestamp": "2025-12-13T13:34:34.742233+00:00", "meta": {"OBJECT_NAME": "INTELSAT 16 (IS-16)", "OBJECT_ID": "2010-006A", "EPOCH": "2025-12-12T23:23:22.582752", "MEAN_MOTION": 1.00272101, "ECCENTRICITY": 0.00020652, "INCLINATION": 0.0077, "RA_OF_ASC_NODE": 333.3523, "ARG_OF_PERICENTER": 290.6328, "MEAN_ANOMALY": 92.5778, "EPHEMERIS_TYPE": 0, "CLASSIFICATION_TYPE": "U", "NORAD_CAT_ID": 36397, "ELEMENT_SET_NO": 999, "REV_AT_EPOCH": 5778, "BSTAR": 0, "MEAN_MOTION_DOT": -2.32e-06, "MEAN_MOTION_DDOT": 0}, "tle": {"line1": "1 36397U 10006A   25346.97456693 -.00000232  00000+0  00000+0 0  9990", "line2": "2 36397   0.0077 333.3523 0002065 290.6328  92.5778  1.00272101 57788"}}, "geometry": {"type": "Point", "coordinates": [-150.0803287041932, -0.022555888216000936]}}, {"type": "Feature", "properties": {"norad_id": 37185, "name": "XM-5", "group": "intelsat", "lat": -0.06173376921303456, "lon": 170.95142520790884, "alt_km": 35779.532076376294, "timestamp": "2025-12-13T13:34:34.742244+00:00", "meta": {"OBJECT_NAME": "XM-5", "OBJECT_ID": "2010-053A", "EPOCH": "2025-12-12T21:29:37.715424", "MEAN_MOTION": 1.00273281, "ECCENTRICITY": 0.00015644, "INCLINATION": 0.0594, "RA_OF_ASC_NODE": 271.8058, "ARG_OF_PERICENTER": 237.8233, "MEAN_ANOMALY": 139.4218, "EPHEMERIS_TYPE": 0, "CLASSIFICATION_TYPE": "U", "NORAD_CAT_ID": 37185, "ELEMENT_SET_NO": 999, "REV_AT_EPOCH": 5561, "BSTAR": 0, "MEAN_MOTION_DOT": -1.1e-07, "MEAN_MOTION_DDOT": 0}, "tle": {"line1": "1 37185U 10053A   25346.89557541 -.00000011  00000+0  00000+0 0  9998", "line2": "2 37185   0.0594 271.8058 0001564 237.8233 139.4218  1.00273281 55618"}}, "geometry": {"type": "Point", "coordinates": [170.95142520790884, -0.06173376921303456]}}, {"type": "Feature", "properties": {"norad_id": 37238, "name": "INTELSAT 17 (IS-17)", "group": "intelsat", "lat": 0.01233669488627414, "lon": -7.828880735072041, "alt_km": 35785.893552756315, "timestamp": "2025-12-13T13:34:34.742254+00:00", "meta": {"OBJECT_NAME": "INTELSAT 17 (IS-17)", "OBJECT_ID": "2010-065B", "EPOCH": "2025-12-12T22:21:17.764704", "MEAN_MOTION": 1.00271466, "ECCENTRICITY": 0.00025323, "INCLINATION": 0.0073, "RA_OF_ASC_NODE": 314.6662, "ARG_OF_PERICENTER": 308.861, "MEAN_ANOMALY": 219.6773, "EPHEMERIS_TYPE": 0, "CLASSIFICATION_TYPE": "U", "NORAD_CAT_ID": 37238, "ELEMENT_SET_NO": 999, "REV_AT_EPOCH": 5138, "BSTAR": 0, "MEAN_MOTION_DOT": 1.1e-07, "MEAN_MOTION_DDOT": 0}, "tle": {"line1": "1 37238U 10065B   25346.93145561  .00000011  00000+0  00000+0 0  9999", "line2": "2 37238   0.0073 314.6662 0002532 308.8610 219.6773  1.00271466 51380"}}, "geometry": {"type": "Point", "coordinates": [-7.828880735072041, 0.01233669488627414]}}, {"type": "Feature", "properties": {"norad_id": 37392, "name": "INTELSAT 28 (IS-28)", "group": "intelsat", "lat": 0.22409478947234238, "lon": -105.55290286991159, "alt_km": 35770.06361549035, "timestamp": "2025-12-13T13:34:34.742264+00:00", "meta": {"OBJECT_NAME": "INTELSAT 28 (IS-28)", "OBJECT_ID": "2011-016A", "EPOCH": "2025-12-12T23:36:06.363072", "MEAN_MOTION": 1.0027313, "ECCENTRICITY": 0.00037789, "INCLINATION": 1.3254, "RA_OF_ASC_NODE": 85.048, "ARG_OF_PERICENTER": 181.1686, "MEAN_ANOMALY": 138.0475, "EPHEMERIS_TYPE": 0, "CLASSIFICATION_TYPE": "U", "NORAD_CAT_ID": 37392, "ELEMENT_SET_NO": 999, "REV_AT_EPOCH": 5141, "BSTAR": 0, "MEAN_MOTION_DOT": -2.12e-06, "MEAN_MOTION_DDOT": 0}, "tle": {"line1": "1 37392U 11016A   25346.98340698 -.00000212  00000+0  00000+0 0  9994", "line2": "2 37392   1.3254  85.0480 0003778 181.1686 138.0475  1.00273130 51418"}}, "geometry": {"type": "Point", "coordinates": [-105.55290286991159, 0.22409478947234238]}}]}